TIANMU-1 08             
1 57400U 23101B   26066.00237819  .00000346  00000+0  14775-4 0  9993
2 57400  97.2717 118.7901 0006380 134.2174 225.9592 15.29204229146020
STARLINK-34187          
1 63956U 25099E   26067.57996218  .00031970  00000+0  11666-2 0  9993
2 63956  43.0044 182.7493 0001971 277.7641  82.2987 15.27568718 47166
