[{"OBJECT_NAME":"TIANMU-1 08","OBJECT_ID":"2023-101B","EPOCH":"2026-03-07T00:03:25.475616","MEAN_MOTION":15.29204229,"ECCENTRICITY":0.00063808,"INCLINATION":97.2717,"RA_OF_ASC_NODE":118.7901,"ARG_OF_PERICENTER":134.2174,"MEAN_ANOMALY":225.9592,"EPHEMERIS_TYPE":0,"CLASSIFICATION_TYPE":"U","NORAD_CAT_ID":57400,"ELEMENT_SET_NO":999,"REV_AT_EPOCH":14602,"BSTAR":1.4774513e-5,"MEAN_MOTION_DOT":3.46e-6,"MEAN_MOTION_DDOT":0},{"OBJECT_NAME":"STARLINK-34187","OBJECT_ID":"2025-099E","EPOCH":"2026-03-08T13:55:08.732352","MEAN_MOTION":15.27568718,"ECCENTRICITY":0.00019714,"INCLINATION":43.0044,"RA_OF_ASC_NODE":182.7493,"ARG_OF_PERICENTER":277.7641,"MEAN_ANOMALY":82.2987,"EPHEMERIS_TYPE":0,"CLASSIFICATION_TYPE":"U","NORAD_CAT_ID":63956,"ELEMENT_SET_NO":999,"REV_AT_EPOCH":4716,"BSTAR":0.0011666356,"MEAN_MOTION_DOT":0.0003197,"MEAN_MOTION_DDOT":0}]
